STARLINK-1012
1 24718C 19074F   21325.12673625  .00005467  00000-0  36638-3 0  3254
2 24718  53.0545  32.6640 0001108  62.6202   6.2798 15.06385848    18
